NORAD_CAT_ID,OBJECT_NAME,OBJECT_TYPE,EPOCH,MEAN_MOTION,ECCENTRICITY,INCLINATION,RA_OF_ASC_NODE,ARG_OF_PERICENTER,MEAN_ANOMALY,BSTAR,MEAN_MOTION_DOT,MEAN_MOTION_DDOT,TLE_LINE0,TLE_LINE1,TLE_LINE2,SEMIMAJOR_AXIS,PERIOD,APOGEE,PERIGEE,DECAYED
53565.0,STARLINK-4575,PAYLOAD,2023-01-23 07:26:59,15.08834249,0.0001229,53.2204,138.1097,76.7243,283.3887,8.476399999999999e-05,1.061e-05,0.0,0 STARLINK-4575,1 53565U 22101AQ  23023.31041614  .00001061  00000-0  84764-4 0  9991,2 53565  53.2204 138.1097 0001229  76.7243 283.3887 15.08834249 24137,6917.898,95.438,540.613,538.913,0.0
53565.0,STARLINK-4575,PAYLOAD,2023-01-23 13:48:31,15.08842312,0.0001175,53.2194,136.9206,75.0531,285.0591,0.00015987,2.258e-05,0.0,0 STARLINK-4575,1 53565U 22101AQ  23023.57536921  .00002258  00000-0  15987-3 0  9998,2 53565  53.2194 136.9206 0001175  75.0531 285.0591 15.08842312 24170,6917.8730000000005,95.437,540.5509999999999,538.925,0.0
53565.0,STARLINK-4575,PAYLOAD,2023-01-24 15:14:41,15.08850402,0.000118,53.22,132.1607,82.5302,277.5824,0.00010674,1.412e-05,0.0,0 STARLINK-4575,1 53565U 22101AQ  23024.63520494  .00001412  00000-0  10674-3 0  9993,2 53565  53.2200 132.1607 0001180  82.5302 277.5824 15.08850402 24338,6917.849,95.437,540.53,538.8969999999999,0.0
53565.0,STARLINK-4575,PAYLOAD,2023-01-25 11:54:43,15.08834861,0.00011,53.2199,128.293,96.0026,264.1092,9.3957e-05,1.208e-05,0.0,0 STARLINK-4575,1 53565U 22101AQ  23025.49633513  .00001208  00000-0  93957-4 0  9994,2 53565  53.2199 128.2930 0001100  96.0026 264.1092 15.08834861 24469,6917.896,95.438,540.5219999999999,539.0,0.0
53565.0,STARLINK-4575,PAYLOAD,2023-01-25 13:30:05,15.08849784,0.0001127,53.2198,127.9973,83.663,276.4491,9.1044e-05,1.162e-05,0.0,0 STARLINK-4575,1 53565U 22101AQ  23025.56256687  .00001162  00000-0  91044-4 0  9999,2 53565  53.2198 127.9973 0001127  83.6630 276.4491 15.08849784 25137,6917.85,95.437,540.495,538.936,0.0
53565.0,STARLINK-4575,PAYLOAD,2023-01-25 15:05:28,15.08851123,0.0001154,53.2201,127.701,82.0078,278.1045,0.00010324,1.356e-05,0.0,0 STARLINK-4575,1 53565U 22101AQ  23025.62880571  .00001356  00000-0  10324-3 0  9997,2 53565  53.2201 127.7010 0001154  82.0078 278.1045 15.08851123 24482,6917.846,95.437,540.51,538.913,0.0
53565.0,STARLINK-4575,PAYLOAD,2023-01-26 11:45:30,15.08843681,0.0001293,53.2208,123.834,79.2662,280.8475,3.3414e-06,-2.35e-06,0.0,0 STARLINK-4575,1 53565U 22101AQ  23026.48993102 -.00000235  00000-0  33414-5 0  9990,2 53565  53.2208 123.8340 0001293  79.2662 280.8475 15.08843681 24615,6917.869000000001,95.437,540.629,538.84,0.0
53565.0,STARLINK-4575,PAYLOAD,2023-01-27 11:36:17,15.08839506,0.0001222,53.2208,119.3785,105.335,254.7777,-4.0284e-05,-9.29e-06,0.0,0 STARLINK-4575,1 53565U 22101AQ  23027.48353705 -.00000929  00000-0 -40284-4 0  9993,2 53565  53.2208 119.3785 0001222 105.3350 254.7777 15.08839506 24767,6917.882,95.438,540.592,538.9019999999999,0.0
53565.0,STARLINK-4575,PAYLOAD,2023-01-27 13:11:40,15.08841918,0.0001208,53.2202,119.0799,103.9215,256.1912,-3.5278000000000003e-05,-8.49e-06,0.0,0 STARLINK-4575,1 53565U 22101AQ  23027.54977413 -.00000849  00000-0 -35278-4 0  9996,2 53565  53.2202 119.0799 0001208 103.9215 256.1912 15.08841918 25433,6917.875,95.437,540.575,538.904,0.0
53565.0,STARLINK-4575,PAYLOAD,2023-01-28 13:02:27,15.08841487,0.0001345,53.2217,114.6234,103.7149,256.3993,-6.2451e-05,-1.282e-05,0.0,0 STARLINK-4575,1 53565U 22101AQ  23028.54337913 -.00001282  00000-0 -62451-4 0  9997,2 53565  53.2217 114.6234 0001345 103.7149 256.3993 15.08841487 25588,6917.876,95.437,540.671,538.81,0.0
53565.0,STARLINK-4575,PAYLOAD,2023-01-28 16:13:14,15.08839643,0.0001283,53.2212,114.0215,86.4628,273.6511,-2.8427e-05,-7.4e-06,0.0,0 STARLINK-4575,1 53565U 22101AQ  23028.67585846 -.00000740  00000-0 -28427-4 0  9994,2 53565  53.2212 114.0215 0001283  86.4628 273.6511 15.08839643 24944,6917.881,95.438,540.634,538.859,0.0
53565.0,STARLINK-4575,PAYLOAD,2023-01-29 14:28:37,15.08844677,0.0001118,53.22,109.8613,102.9419,257.1698,8.5467e-05,1.073e-05,0.0,0 STARLINK-4575,1 53565U 22101AQ  23029.60321298  .00001073  00000-0  85467-4 0  9992,2 53565  53.2200 109.8613 0001118 102.9419 257.1698 15.08844677 25086,6917.866,95.437,540.505,538.958,0.0
53565.0,STARLINK-4575,PAYLOAD,2023-01-29 22:25:33,15.08843879,0.0001264,53.2212,108.3727,84.0617,276.0519,7.1021e-05,8.43e-06,0.0,0 STARLINK-4575,1 53565U 22101AQ  23029.93441378  .00000843  00000-0  71021-4 0  9995,2 53565  53.2212 108.3727 0001264  84.0617 276.0519 15.08843879 25794,6917.869,95.437,540.608,538.859,0.0
53565.0,STARLINK-4575,PAYLOAD,2023-01-30 11:08:38,15.08846019,0.000109,53.2198,105.9963,92.6654,267.4463,5.8414e-05,6.42e-06,0.0,0 STARLINK-4575,1 53565U 22101AQ  23030.46433250  .00000642  00000-0  58414-4 0  9993,2 53565  53.2198 105.9963 0001090  92.6654 267.4463 15.08846019 25875,6917.862,95.437,540.481,538.973,0.0
53565.0,STARLINK-4575,PAYLOAD,2023-01-30 22:16:20,15.08846446,0.0001126,53.2201,103.9156,85.4335,274.6786,3.1278e-05,2.1e-06,0.0,0 STARLINK-4575,1 53565U 22101AQ  23030.92801160  .00000210  00000-0  31278-4 0  9993,2 53565  53.2201 103.9156 0001126  85.4335 274.6786 15.08846446 25948,6917.861,95.437,540.505,538.947,0.0
53565.0,STARLINK-4575,PAYLOAD,2023-01-31 10:59:26,15.08839536,0.0001379,53.2204,101.539,86.0155,274.0995,-8.2604e-05,-1.602e-05,0.0,0 STARLINK-4575,1 53565U 22101AQ  23031.45794044 -.00001602  00000-0 -82604-4 0  9991,2 53565  53.2204 101.5390 0001379  86.0155 274.0995 15.08839536 25366,6917.882,95.438,540.701,538.793,0.0
53565.0,STARLINK-4575,PAYLOAD,2023-01-31 22:07:07,15.08842192,0.0001263,53.2202,99.4574,79.7031,280.4103,-4.2693e-05,-9.67e-06,0.0,0 STARLINK-4575,1 53565U 22101AQ  23031.92161734 -.00000967  00000-0 -42693-4 0  9994,2 53565  53.2202  99.4574 0001263  79.7031 280.4103 15.08842192 26092,6917.874,95.437,540.612,538.865,0.0
53565.0,STARLINK-4575,PAYLOAD,2023-02-01 10:50:12,15.08843819,0.0001132,53.2196,97.0751,99.1486,260.9634,2.4085e-05,9.6e-07,0.0,0 STARLINK-4575,1 53565U 22101AQ  23032.45153213  .00000096  00000-0  24085-4 0  9992,2 53565  53.2196  97.0751 0001132  99.1486 260.9634 15.08843819 25515,6917.869,95.437,540.517,538.951,0.0
53565.0,STARLINK-4575,PAYLOAD,2023-02-02 12:16:23,15.08836874,0.0001237,53.2194,92.3175,98.4847,261.6285,3.9941e-05,3.48e-06,0.0,0 STARLINK-4575,1 53565U 22101AQ  23033.51137844  .00000348  00000-0  39941-4 0  9999,2 53565  53.2194  92.3175 0001237  98.4847 261.6285 15.08836874 26334,6917.89,95.438,540.611,538.899,0.0
53565.0,STARLINK-4575,PAYLOAD,2023-02-03 12:07:10,15.08843374,0.0001443,53.2197,87.8561,109.2755,250.8393,-2.5311e-05,-6.91e-06,0.0,0 STARLINK-4575,1 53565U 22101AQ  23034.50497873 -.00000691  00000-0 -25311-4 0  9999,2 53565  53.2197  87.8561 0001443 109.2755 250.8393 15.08843374 26482,6917.87,95.437,540.733,538.737,0.0
53565.0,STARLINK-4575,PAYLOAD,2023-02-04 08:47:11,15.08835643,0.0001382,53.22,83.9901,108.5842,251.5301,1.3608e-05,-7.1e-07,0.0,0 STARLINK-4575,1 53565U 22101AQ  23035.36610491 -.00000071  00000-0  13608-4 0  9994,2 53565  53.2200  83.9901 0001382 108.5842 251.5301 15.08835643 25951,6917.894,95.438,540.715,538.803,0.0
53565.0,STARLINK-4575,PAYLOAD,2023-02-04 11:57:57,15.0883584,0.0001368,53.2199,83.3953,107.9268,252.1873,1.4349e-05,-6e-07,0.0,0 STARLINK-4575,1 53565U 22101AQ  23035.49858516 -.00000060  00000-0  14349-4 0  9991,2 53565  53.2199  83.3953 0001368 107.9268 252.1873 15.08835840 26634,6917.893,95.438,540.704,538.812,0.0
53565.0,STARLINK-4575,PAYLOAD,2023-02-04 19:54:53,15.08834111,0.000139,53.221,81.9089,87.9748,272.1403,1.6959e-05,-1.8e-07,0.0,0 STARLINK-4575,1 53565U 22101AQ  23035.82978828 -.00000018  00000-0  16959-4 0  9999,2 53565  53.2210  81.9089 0001390  87.9748 272.1403 15.08834111 26683,6917.898,95.438,540.725,538.802,0.0
53565.0,STARLINK-4575,PAYLOAD,2023-02-05 11:48:45,15.08803059,0.0001593,53.2209,78.9351,89.7207,270.3968,0.00053029,8.153e-05,0.0,0 STARLINK-4575,1 53565U 22101AQ  23036.49219210  .00008153  00000-0  53029-3 0  9991,2 53565  53.2209  78.9351 0001593  89.7207 270.3968 15.08803059 26126,6917.993,95.44,540.96,538.756,0.0
53565.0,STARLINK-4575,PAYLOAD,2023-02-05 19:45:40,15.08838752,0.0001285,53.2198,77.4485,102.7863,257.3273,5.0649e-05,5.18e-06,0.0,0 STARLINK-4575,1 53565U 22101AQ  23036.82338544  .00000518  00000-0  50649-4 0  9993,2 53565  53.2198  77.4485 0001285 102.7863 257.3273 15.08838752 26174,6917.884,95.438,540.638,538.86,0.0
53565.0,STARLINK-4575,PAYLOAD,2023-02-06 11:39:31,15.08849215,0.0001233,53.2187,74.4775,93.8017,266.3116,0.00012892,1.765e-05,0.0,0 STARLINK-4575,1 53565U 22101AQ  23037.48577743  .00001765  00000-0  12892-3 0  9994,2 53565  53.2187  74.4775 0001233  93.8017 266.3116 15.08849215 26931,6917.852,95.437,540.57,538.864,0.0
53565.0,STARLINK-4575,PAYLOAD,2023-02-06 19:36:27,15.08837696,0.0001391,53.2203,72.9889,87.0363,273.0788,4.7259e-05,4.64e-06,0.0,0 STARLINK-4575,1 53565U 22101AQ  23037.81698752  .00000464  00000-0  47259-4 0  9996,2 53565  53.2203  72.9889 0001391  87.0363 273.0788 15.08837696 26988,6917.887,95.438,540.715,538.79,0.0
53565.0,STARLINK-4575,PAYLOAD,2023-02-07 01:58:00,15.08839511,0.0001348,53.2187,71.8018,84.8867,275.2279,4.9078e-05,4.93e-06,0.0,0 STARLINK-4575,1 53565U 22101AQ  23038.08194665  .00000493  00000-0  49078-4 0  9993,2 53565  53.2187  71.8018 0001348  84.8867 275.2279 15.08839511 26366,6917.882,95.438,540.679,538.814,0.0
53565.0,STARLINK-4575,PAYLOAD,2023-02-07 11:30:18,15.08853595,0.0001384,53.2185,70.0179,78.81,281.3048,0.00011136,1.485e-05,0.0,0 STARLINK-4575,1 53565U 22101AQ  23038.47937513  .00001485  00000-0  11136-3 0  9998,2 53565  53.2185  70.0179 0001384  78.8100 281.3048 15.08853595 26423,6917.839,95.437,540.661,538.746,0.0
53565.0,STARLINK-4575,PAYLOAD,2023-02-08 11:21:04,15.08854984,0.0001126,53.2187,65.556,108.0802,252.0313,4.6897e-05,4.59e-06,0.0,0 STARLINK-4575,1 53565U 22101AQ  23039.47297325  .00000459  00000-0  46897-4 0  9992,2 53565  53.2187  65.5560 0001126 108.0802 252.0313 15.08854984 26576,6917.835,95.437,540.479,538.921,0.0
